STARLINK-35367          
1 65883U 25224B   25300.83334491 -.01988096  00000+0 -28284-1 0  9997
2 65883  53.1591 271.0515 0001402  88.9528  29.0229 15.59252653  4476
STARLINK-35384          
1 65884U 25224C   25300.83334491 -.01982355  00000+0 -28197-1 0  9993
2 65884  53.1593 271.0422 0001312  92.9669  28.8455 15.59247975  4476
STARLINK-35415          
1 65885U 25224D   25300.83334491 -.01984134  00000+0 -28221-1 0  9999
2 65885  53.1592 271.0347 0001382  89.0978  36.5438 15.59251507  4438
STARLINK-35413          
1 65886U 25224E   25300.83334491 -.01984770  00000+0 -28230-1 0  9996
2 65886  53.1589 271.0267 0001402  90.4423  39.0324 15.59252318  4433
STARLINK-35332          
1 65887U 25224F   25300.83334491 -.01978879  00000+0 -28139-1 0  9998
2 65887  53.1596 271.0221 0001465  90.1357  41.2580 15.59247525  4505
STARLINK-35362          
1 65888U 25224G   25300.83334491 -.01981080  00000+0 -28175-1 0  9997
2 65888  53.1594 271.0545 0001367  94.2942  21.7655 15.59248129  4472
STARLINK-35193          
1 65889U 25224H   25300.83334491 -.01977696  00000+0 -28121-1 0  9997
2 65889  53.1597 270.7849 0001411 102.7110 142.9461 15.59247078  4508
STARLINK-34542          
1 65890U 25224J   25300.83334491 -.01976577  00000+0 -28104-1 0  9997
2 65890  53.1593 271.0462 0001452  95.7276  24.1658 15.59245289  4523
STARLINK-34791          
1 65891U 25224K   25300.83334491 -.01982124  00000+0 -28189-1 0  9996
2 65891  53.1597 270.7927 0001369 103.7050 138.1170 15.59250723  4521
STARLINK-34853          
1 65892U 25224L   25300.83334491 -.01980917  00000+0 -28171-1 0  9996
2 65892  53.1595 271.0385 0001349  93.4651  30.2602 15.59249354  4465
STARLINK-34921          
1 65893U 25224M   25300.83334491 -.01977498  00000+0 -28121-1 0  9992
2 65893  53.1595 270.7805 0001249 110.4852 137.0918 15.59245991  4527
STARLINK-34672          
1 65894U 25224N   25300.83334491 -.01979728  00000+0 -28152-1 0  9995
2 65894  53.1599 270.7888 0001411 102.0250 141.7148 15.59248476  4521
