CCSDS_OMM_VERS = 2.0
CREATION_DATE  = 
ORIGINATOR     = 

OBJECT_NAME    = STARLINK-35367
OBJECT_ID      = 2025-224B
CENTER_NAME    = EARTH
REF_FRAME      = TEME
TIME_SYSTEM    = UTC
MEAN_ELEMENT_THEORY = SGP/SGP4

EPOCH          = 2025-10-27T20:00:01.000224
MEAN_MOTION    = 15.59252653
ECCENTRICITY   = .00014029
INCLINATION    = 53.1591
RA_OF_ASC_NODE = 271.0515
ARG_OF_PERICENTER = 88.9528
MEAN_ANOMALY   = 29.0229

EPHEMERIS_TYPE = 0
CLASSIFICATION_TYPE = U
NORAD_CAT_ID   = 65883
ELEMENT_SET_NO = 999
REV_AT_EPOCH   = 447
BSTAR          = -.28283634E-1
MEAN_MOTION_DOT = -.1988096E-1
MEAN_MOTION_DDOT = 0

CCSDS_OMM_VERS = 2.0
CREATION_DATE  = 
ORIGINATOR     = 

OBJECT_NAME    = STARLINK-35384
OBJECT_ID      = 2025-224C
CENTER_NAME    = EARTH
REF_FRAME      = TEME
TIME_SYSTEM    = UTC
MEAN_ELEMENT_THEORY = SGP/SGP4

EPOCH          = 2025-10-27T20:00:01.000224
MEAN_MOTION    = 15.59247975
ECCENTRICITY   = .00013126
INCLINATION    = 53.1593
RA_OF_ASC_NODE = 271.0422
ARG_OF_PERICENTER = 92.9669
MEAN_ANOMALY   = 28.8455

EPHEMERIS_TYPE = 0
CLASSIFICATION_TYPE = U
NORAD_CAT_ID   = 65884
ELEMENT_SET_NO = 999
REV_AT_EPOCH   = 447
BSTAR          = -.28196621E-1
MEAN_MOTION_DOT = -.1982355E-1
MEAN_MOTION_DDOT = 0

CCSDS_OMM_VERS = 2.0
CREATION_DATE  = 
ORIGINATOR     = 

OBJECT_NAME    = STARLINK-35415
OBJECT_ID      = 2025-224D
CENTER_NAME    = EARTH
REF_FRAME      = TEME
TIME_SYSTEM    = UTC
MEAN_ELEMENT_THEORY = SGP/SGP4

EPOCH          = 2025-10-27T20:00:01.000224
MEAN_MOTION    = 15.59251507
ECCENTRICITY   = .00013822
INCLINATION    = 53.1592
RA_OF_ASC_NODE = 271.0347
ARG_OF_PERICENTER = 89.0978
MEAN_ANOMALY   = 36.5438

EPHEMERIS_TYPE = 0
CLASSIFICATION_TYPE = U
NORAD_CAT_ID   = 65885
ELEMENT_SET_NO = 999
REV_AT_EPOCH   = 443
BSTAR          = -.28220837E-1
MEAN_MOTION_DOT = -.1984134E-1
MEAN_MOTION_DDOT = 0

CCSDS_OMM_VERS = 2.0
CREATION_DATE  = 
ORIGINATOR     = 

OBJECT_NAME    = STARLINK-35413
OBJECT_ID      = 2025-224E
CENTER_NAME    = EARTH
REF_FRAME      = TEME
TIME_SYSTEM    = UTC
MEAN_ELEMENT_THEORY = SGP/SGP4

EPOCH          = 2025-10-27T20:00:01.000224
MEAN_MOTION    = 15.59252318
ECCENTRICITY   = .00014029
INCLINATION    = 53.1589
RA_OF_ASC_NODE = 271.0267
ARG_OF_PERICENTER = 90.4423
MEAN_ANOMALY   = 39.0324

EPHEMERIS_TYPE = 0
CLASSIFICATION_TYPE = U
NORAD_CAT_ID   = 65886
ELEMENT_SET_NO = 999
REV_AT_EPOCH   = 443
BSTAR          = -.28230031E-1
MEAN_MOTION_DOT = -.198477E-1
MEAN_MOTION_DDOT = 0

CCSDS_OMM_VERS = 2.0
CREATION_DATE  = 
ORIGINATOR     = 

OBJECT_NAME    = STARLINK-35332
OBJECT_ID      = 2025-224F
CENTER_NAME    = EARTH
REF_FRAME      = TEME
TIME_SYSTEM    = UTC
MEAN_ELEMENT_THEORY = SGP/SGP4

EPOCH          = 2025-10-27T20:00:01.000224
MEAN_MOTION    = 15.59247525
ECCENTRICITY   = .0001465
INCLINATION    = 53.1596
RA_OF_ASC_NODE = 271.0221
ARG_OF_PERICENTER = 90.1357
MEAN_ANOMALY   = 41.2580

EPHEMERIS_TYPE = 0
CLASSIFICATION_TYPE = U
NORAD_CAT_ID   = 65887
ELEMENT_SET_NO = 999
REV_AT_EPOCH   = 450
BSTAR          = -.28138977E-1
MEAN_MOTION_DOT = -.1978879E-1
MEAN_MOTION_DDOT = 0

CCSDS_OMM_VERS = 2.0
CREATION_DATE  = 
ORIGINATOR     = 

OBJECT_NAME    = STARLINK-35362
OBJECT_ID      = 2025-224G
CENTER_NAME    = EARTH
REF_FRAME      = TEME
TIME_SYSTEM    = UTC
MEAN_ELEMENT_THEORY = SGP/SGP4

EPOCH          = 2025-10-27T20:00:01.000224
MEAN_MOTION    = 15.59248129
ECCENTRICITY   = .00013671
INCLINATION    = 53.1594
RA_OF_ASC_NODE = 271.0545
ARG_OF_PERICENTER = 94.2942
MEAN_ANOMALY   = 21.7655

EPHEMERIS_TYPE = 0
CLASSIFICATION_TYPE = U
NORAD_CAT_ID   = 65888
ELEMENT_SET_NO = 999
REV_AT_EPOCH   = 447
BSTAR          = -.2817515E-1
MEAN_MOTION_DOT = -.198108E-1
MEAN_MOTION_DDOT = 0

CCSDS_OMM_VERS = 2.0
CREATION_DATE  = 
ORIGINATOR     = 

OBJECT_NAME    = STARLINK-35193
OBJECT_ID      = 2025-224H
CENTER_NAME    = EARTH
REF_FRAME      = TEME
TIME_SYSTEM    = UTC
MEAN_ELEMENT_THEORY = SGP/SGP4

EPOCH          = 2025-10-27T20:00:01.000224
MEAN_MOTION    = 15.59247078
ECCENTRICITY   = .00014113
INCLINATION    = 53.1597
RA_OF_ASC_NODE = 270.7849
ARG_OF_PERICENTER = 102.7110
MEAN_ANOMALY   = 142.9461

EPHEMERIS_TYPE = 0
CLASSIFICATION_TYPE = U
NORAD_CAT_ID   = 65889
ELEMENT_SET_NO = 999
REV_AT_EPOCH   = 450
BSTAR          = -.28120915E-1
MEAN_MOTION_DOT = -.1977696E-1
MEAN_MOTION_DDOT = 0

CCSDS_OMM_VERS = 2.0
CREATION_DATE  = 
ORIGINATOR     = 

OBJECT_NAME    = STARLINK-34542
OBJECT_ID      = 2025-224J
CENTER_NAME    = EARTH
REF_FRAME      = TEME
TIME_SYSTEM    = UTC
MEAN_ELEMENT_THEORY = SGP/SGP4

EPOCH          = 2025-10-27T20:00:01.000224
MEAN_MOTION    = 15.59245289
ECCENTRICITY   = .00014528
INCLINATION    = 53.1593
RA_OF_ASC_NODE = 271.0462
ARG_OF_PERICENTER = 95.7276
MEAN_ANOMALY   = 24.1658

EPHEMERIS_TYPE = 0
CLASSIFICATION_TYPE = U
NORAD_CAT_ID   = 65890
ELEMENT_SET_NO = 999
REV_AT_EPOCH   = 452
BSTAR          = -.28104218E-1
MEAN_MOTION_DOT = -.1976577E-1
MEAN_MOTION_DDOT = 0

CCSDS_OMM_VERS = 2.0
CREATION_DATE  = 
ORIGINATOR     = 

OBJECT_NAME    = STARLINK-34791
OBJECT_ID      = 2025-224K
CENTER_NAME    = EARTH
REF_FRAME      = TEME
TIME_SYSTEM    = UTC
MEAN_ELEMENT_THEORY = SGP/SGP4

EPOCH          = 2025-10-27T20:00:01.000224
MEAN_MOTION    = 15.59250723
ECCENTRICITY   = .00013693
INCLINATION    = 53.1597
RA_OF_ASC_NODE = 270.7927
ARG_OF_PERICENTER = 103.7050
MEAN_ANOMALY   = 138.1170

EPHEMERIS_TYPE = 0
CLASSIFICATION_TYPE = U
NORAD_CAT_ID   = 65891
ELEMENT_SET_NO = 999
REV_AT_EPOCH   = 452
BSTAR          = -.28189254E-1
MEAN_MOTION_DOT = -.1982124E-1
MEAN_MOTION_DDOT = 0

CCSDS_OMM_VERS = 2.0
CREATION_DATE  = 
ORIGINATOR     = 

OBJECT_NAME    = STARLINK-34853
OBJECT_ID      = 2025-224L
CENTER_NAME    = EARTH
REF_FRAME      = TEME
TIME_SYSTEM    = UTC
MEAN_ELEMENT_THEORY = SGP/SGP4

EPOCH          = 2025-10-27T20:00:01.000224
MEAN_MOTION    = 15.59249354
ECCENTRICITY   = .00013499
INCLINATION    = 53.1595
RA_OF_ASC_NODE = 271.0385
ARG_OF_PERICENTER = 93.4651
MEAN_ANOMALY   = 30.2602

EPHEMERIS_TYPE = 0
CLASSIFICATION_TYPE = U
NORAD_CAT_ID   = 65892
ELEMENT_SET_NO = 999
REV_AT_EPOCH   = 446
BSTAR          = -.28171374E-1
MEAN_MOTION_DOT = -.1980917E-1
MEAN_MOTION_DDOT = 0

CCSDS_OMM_VERS = 2.0
CREATION_DATE  = 
ORIGINATOR     = 

OBJECT_NAME    = STARLINK-34921
OBJECT_ID      = 2025-224M
CENTER_NAME    = EARTH
REF_FRAME      = TEME
TIME_SYSTEM    = UTC
MEAN_ELEMENT_THEORY = SGP/SGP4

EPOCH          = 2025-10-27T20:00:01.000224
MEAN_MOTION    = 15.59245991
ECCENTRICITY   = .00012497
INCLINATION    = 53.1595
RA_OF_ASC_NODE = 270.7805
ARG_OF_PERICENTER = 110.4852
MEAN_ANOMALY   = 137.0918

EPHEMERIS_TYPE = 0
CLASSIFICATION_TYPE = U
NORAD_CAT_ID   = 65893
ELEMENT_SET_NO = 999
REV_AT_EPOCH   = 452
BSTAR          = -.28120746E-1
MEAN_MOTION_DOT = -.1977498E-1
MEAN_MOTION_DDOT = 0

CCSDS_OMM_VERS = 2.0
CREATION_DATE  = 
ORIGINATOR     = 

OBJECT_NAME    = STARLINK-34672
OBJECT_ID      = 2025-224N
CENTER_NAME    = EARTH
REF_FRAME      = TEME
TIME_SYSTEM    = UTC
MEAN_ELEMENT_THEORY = SGP/SGP4

EPOCH          = 2025-10-27T20:00:01.000224
MEAN_MOTION    = 15.59248476
ECCENTRICITY   = .00014112
INCLINATION    = 53.1599
RA_OF_ASC_NODE = 270.7888
ARG_OF_PERICENTER = 102.0250
MEAN_ANOMALY   = 141.7148

EPHEMERIS_TYPE = 0
CLASSIFICATION_TYPE = U
NORAD_CAT_ID   = 65894
ELEMENT_SET_NO = 999
REV_AT_EPOCH   = 452
BSTAR          = -.28152346E-1
MEAN_MOTION_DOT = -.1979728E-1
MEAN_MOTION_DDOT = 0

